[{"salutation":"Dr. med.","name":"Amann Susanne","address":{"street":"Sebastian-Kneipp-Str. 38","zip":"35080 Bad Endbach","district":"Bad Endbach"},"url":"https://www.arztsuchehessen.de/arztsuche/arztsuche.php?page=karteikarte&arztID=35995&status=43460&zulknz=E&adrkey=112184&bstkey=547569"},{"salutation":"Priv.-Doz. Dr. med.","name":"Arnold Peter","address":{"street":"Viernheimer Str. 2","zip":"64646 Heppenheim (Bergstraße)","district":"Heppenheim"},"url":"https://www.arztsuchehessen.de/arztsuche/arztsuche.php?page=karteikarte&arztID=31636&status=42043&zulknz=E&adrkey=62325&bstkey=45131"},{"salutation":"Dr. med.","name":"Arndt Uta","address":{"street":"Reifenberger Str. 6","zip":"65719 Hofheim am Taunus","district":"Hofheim"},"url":"https://www.arztsuchehessen.de/arztsuche/arztsuche.php?page=karteikarte&arztID=41434&status=27094&zulknz=V&adrkey=108213&bstkey=119208"},{"salutation":"Dr. med.","name":"Barthel Richard","address":{"street":"Frankfurter Str. 7","zip":"61462 Königstein im Taunus","district":"Königstein"},"url":"https://www.arztsuchehessen.de/arztsuche/arztsuche.php?page=karteikarte&arztID=7732&status=57053&zulknz=V&adrkey=69431&bstkey=119060"},{"salutation":"Behnert Wulf-Dieter","name":"0561 / 27577","address":{"street":"Wilhelmshöher Allee 345","zip":"34131 Kassel","district":"Bad Wilhelmshöhe"},"url":"https://www.arztsuchehessen.de/arztsuche/arztsuche.php?page=karteikarte&arztID=30081&status=81960&zulknz=A&adrkey=96508&bstkey=333391"},{"salutation":"Dr. med.","name":"Brand Axel","address":{"street":"Wilhelmstr. 3","zip":"65343 Eltville am Rhein","district":"Eltville"},"url":"https://www.arztsuchehessen.de/arztsuche/arztsuche.php?page=karteikarte&arztID=32673&status=1767&zulknz=V&adrkey=112006&bstkey=619309"},{"salutation":"Dr. med.","name":"Blickle Johannes","address":{"street":"Emsstr. 19","zip":"65520 Bad Camberg","district":"Bad Camberg"},"url":"https://www.arztsuchehessen.de/arztsuche/arztsuche.php?page=karteikarte&arztID=15811&status=12180&zulknz=V&adrkey=186774&bstkey=419308"},{"salutation":"Dr. med.","name":"Broll Matthias","address":{"street":"Forsthausstr. 1 - 3","zip":"35578 Wetzlar","district":"Wetzlar"},"url":"https://www.arztsuchehessen.de/arztsuche/arztsuche.php?page=karteikarte&arztID=61924&status=79906&zulknz=A&adrkey=100429&bstkey=233081"},{"salutation":"Dr. med.","name":"Burchardi Christian","address":{"street":"Starkenburgring 70","zip":"63069 Offenbach am Main","district":"Offenbach am Main"},"url":"https://www.arztsuchehessen.de/arztsuche/arztsuche.php?page=karteikarte&arztID=35916&status=48740&zulknz=A&adrkey=90026&bstkey=133052"},{"salutation":"Dr. med.","name":"Behringer Walter","address":{"street":"Schlitzer Str. 87","zip":"36039 Fulda","district":"Horas"},"url":"https://www.arztsuchehessen.de/arztsuche/arztsuche.php?page=karteikarte&arztID=20367&status=46981&zulknz=V&adrkey=115149&bstkey=313077"},{"salutation":"Dr. med.","name":"Busch Thomas","address":{"street":"Eschollbrücker Str. 26","zip":"64295 Darmstadt","district":"Darmstadt"},"url":"https://www.arztsuchehessen.de/arztsuche/arztsuche.php?page=karteikarte&arztID=34229&status=861&zulknz=V&adrkey=107215&bstkey=17313"},{"salutation":"Dr. med. Dr. biol. hom.","name":"Dischereit Gabriel","address":{"street":"Erlenring 9","zip":"35037 Marburg","district":"Marburg"},"url":"https://www.arztsuchehessen.de/arztsuche/arztsuche.php?page=karteikarte&arztID=46164&status=80904&zulknz=V&adrkey=184467&bstkey=519413"},{"salutation":"Dr. med.","name":"Finkenwirth Christoph","address":{"street":"Düsseldorfer Str. 1-7","zip":"60329 Frankfurt am Main","district":"Bahnhofsviertel"},"url":"https://www.arztsuchehessen.de/arztsuche/arztsuche.php?page=karteikarte&arztID=66763&status=79301&zulknz=A&adrkey=143145&bstkey=195991"},{"salutation":"Dr. med.","name":"Finkenwirth Christoph","address":{"street":"Goethestr. 4-8","zip":"60313 Frankfurt am Main","district":"Innenstadt"},"url":"https://www.arztsuchehessen.de/arztsuche/arztsuche.php?page=karteikarte&arztID=66763&status=79301&zulknz=A&adrkey=188565&bstkey=196712"},{"salutation":"Dr. med.","name":"Häntsch Johann","address":{"street":"Eschollbrücker Str. 26","zip":"64295 Darmstadt","district":"Darmstadt"},"url":"https://www.arztsuchehessen.de/arztsuche/arztsuche.php?page=karteikarte&arztID=29971&status=6187&zulknz=V&adrkey=107215&bstkey=17313"},{"salutation":"Dr. med.","name":"Giesa Markus","address":{"street":"Wilhelmstr. 17","zip":"65185 Wiesbaden","district":"Wiesbaden"},"url":"https://www.arztsuchehessen.de/arztsuche/arztsuche.php?page=karteikarte&arztID=40665&status=1006&zulknz=V&adrkey=127107&bstkey=644033"},{"salutation":"Prof. Dr. med.","name":"Heers Guido","address":{"street":"Wilhelmshöher Allee 345","zip":"34131 Kassel","district":"Bad Wilhelmshöhe"},"url":"https://www.arztsuchehessen.de/arztsuche/arztsuche.php?page=karteikarte&arztID=62443&status=68834&zulknz=E&adrkey=150360&bstkey=372690"},{"salutation":"Dr. med.","name":"Hennigs Thorsten","address":{"street":"Rennbahnstr. 36","zip":"60528 Frankfurt am Main","district":"Niederrad"},"url":"https://www.arztsuchehessen.de/arztsuche/arztsuche.php?page=karteikarte&arztID=28447&status=6611&zulknz=V&adrkey=57459&bstkey=144137"},{"salutation":"Dr. med.","name":"Käßer Ulrich","address":{"street":"Friedrichstr. 21","zip":"35392 Gießen","district":"Gießen"},"url":"https://www.arztsuchehessen.de/arztsuche/arztsuche.php?page=karteikarte&arztID=18746&status=3523&zulknz=V&adrkey=167240&bstkey=219397"},{"salutation":"Dr. med.","name":"Himsel Andrea","address":{"street":"August-Bebel-Str. 59","zip":"65428 Rüsselsheim am Main","district":"Rüsselsheim"},"url":"https://www.arztsuchehessen.de/arztsuche/arztsuche.php?page=karteikarte&arztID=46227&status=83971&zulknz=A&adrkey=95548&bstkey=33051"},{"salutation":"Dr. med.","name":"Knarr Wilhelm","address":{"street":"Wilhelmstr. 3","zip":"65343 Eltville am Rhein","district":"Eltville"},"url":"https://www.arztsuchehessen.de/arztsuche/arztsuche.php?page=karteikarte&arztID=18567&status=10010&zulknz=V&adrkey=112006&bstkey=619309"},{"salutation":"Prof. Dr. med.","name":"Kern Peter","address":{"street":"Pacelliallee 4","zip":"36043 Fulda","district":"Ziehers-Süd"},"url":"https://www.arztsuchehessen.de/arztsuche/arztsuche.php?page=karteikarte&arztID=42585&status=49288&zulknz=A&adrkey=102400&bstkey=333901"},{"salutation":"Dr. med.","name":"Jonas Robert","address":{"street":"Schubertstr. 37","zip":"64546 Mörfelden-Walldorf","district":"Mörfelden"},"url":"https://www.arztsuchehessen.de/arztsuche/arztsuche.php?page=karteikarte&arztID=1376&status=21175&zulknz=V&adrkey=21695&bstkey=44069"},{"salutation":"Prof. Dr. med.","name":"Köster Georg","address":{"street":"Wilhelm-Leuschner-Str. 10","zip":"64653 Lorsch","district":"Lorsch"},"url":"https://www.arztsuchehessen.de/arztsuche/arztsuche.php?page=karteikarte&arztID=32384&status=55492&zulknz=E&adrkey=64666&bstkey=45161"},{"salutation":"Dr. med.","name":"Kranz Ulrich","address":{"street":"Gutenbergstr. 3","zip":"65343 Eltville am Rhein","district":"Eltville"},"url":"https://www.arztsuchehessen.de/arztsuche/arztsuche.php?page=karteikarte&arztID=18400&status=85426&zulknz=A&adrkey=187731&bstkey=644011"},{"salutation":"Dr. med.","name":"Saar Petra","address":{"street":"Stresemannallee 1-3","zip":"60596 Frankfurt am Main","district":"Sachsenhausen"},"url":"https://www.arztsuchehessen.de/arztsuche/arztsuche.php?page=karteikarte&arztID=46273&status=80576&zulknz=A&adrkey=109633&bstkey=133057"},{"salutation":"Dr. med.","name":"Schneider Rainer","address":{"street":"Bahnstr. 9","zip":"65779 Kelkheim (Taunus)","district":"Kelkheim"},"url":"https://www.arztsuchehessen.de/arztsuche/arztsuche.php?page=karteikarte&arztID=7114&status=19233&zulknz=V&adrkey=25426&bstkey=144440"},{"salutation":"Dr. med.","name":"Safiarian Human","address":{"street":"Bieberer Str. 1 - 7","zip":"63065 Offenbach am Main","district":"Offenbach am Main"},"url":"https://www.arztsuchehessen.de/arztsuche/arztsuche.php?page=karteikarte&arztID=36039&status=26672&zulknz=V&adrkey=127615&bstkey=135850"},{"salutation":"Dr. med.","name":"Schäfer Thomas","address":{"street":"Schillerplatz 10","zip":"35578 Wetzlar","district":"Wetzlar"},"url":"https://www.arztsuchehessen.de/arztsuche/arztsuche.php?page=karteikarte&arztID=10121&status=82700&zulknz=A&adrkey=185503&bstkey=255810"},{"salutation":"Dr. med.","name":"Schütz Norbert","address":{"street":"Geisenheimer Str. 10","zip":"65197 Wiesbaden","district":"Wiesbaden"},"url":"https://www.arztsuchehessen.de/arztsuche/arztsuche.php?page=karteikarte&arztID=29741&status=79418&zulknz=A&adrkey=159388&bstkey=666184"},{"salutation":"Dr. med.","name":"Steinmüller Mirko","address":{"street":"Stegwiese 27 A","zip":"35630 Ehringshausen","district":"Ehringshausen"},"url":"https://www.arztsuchehessen.de/arztsuche/arztsuche.php?page=karteikarte&arztID=49842&status=61406&zulknz=V&adrkey=186545&bstkey=254638"},{"salutation":"Dr. med.","name":"Steinchen Nicolai","address":{"street":"Wilhelmshöher Allee 345","zip":"34131 Kassel","district":"Bad Wilhelmshöhe"},"url":"https://www.arztsuchehessen.de/arztsuche/arztsuche.php?page=karteikarte&arztID=49098&status=72056&zulknz=V&adrkey=154828&bstkey=313716"},{"salutation":"Storck-Müller Katrin","name":"02776 / 919100","address":{"street":"Sebastian-Kneipp-Str. 36","zip":"35080 Bad Endbach","district":"Bad Endbach"},"url":"https://www.arztsuchehessen.de/arztsuche/arztsuche.php?page=karteikarte&arztID=31853&status=42057&zulknz=E&adrkey=62874&bstkey=221420"},{"salutation":"Dr. med.","name":"Schäfer Thomas","address":{"street":"Hecksbergstr. 23-27","zip":"35619 Braunfels","district":"Braunfels"},"url":"https://www.arztsuchehessen.de/arztsuche/arztsuche.php?page=karteikarte&arztID=10121&status=82700&zulknz=A&adrkey=187364&bstkey=255922"},{"salutation":"Prof. Dr. med.","name":"Strutz Frank","address":{"street":"Langenbeckplatz 2","zip":"65189 Wiesbaden","district":"Wiesbaden"},"url":"https://www.arztsuchehessen.de/arztsuche/arztsuche.php?page=karteikarte&arztID=40968&status=27620&zulknz=V&adrkey=102201&bstkey=600118"},{"salutation":"Prof. Dr. med.","name":"Strutz Frank","address":{"street":"Ludwig-Erhard-Str. 100","zip":"65199 Wiesbaden","district":"Dotzheim"},"url":"https://www.arztsuchehessen.de/arztsuche/arztsuche.php?page=karteikarte&arztID=40968&status=27620&zulknz=V&adrkey=122016&bstkey=606782"},{"salutation":"Prof. Dr. med.","name":"Strutz Frank","address":{"street":"Von-Leyden-Str. 23","zip":"65191 Wiesbaden","district":"Bierstadt"},"url":"https://www.arztsuchehessen.de/arztsuche/arztsuche.php?page=karteikarte&arztID=40968&status=27620&zulknz=V&adrkey=131508&bstkey=619068"},{"salutation":"Prof. Dr. med.","name":"Strutz Frank","address":{"street":"Ludwig-Erhard-Str. 100","zip":"65199 Wiesbaden","district":"Dotzheim"},"url":"https://www.arztsuchehessen.de/arztsuche/arztsuche.php?page=karteikarte&arztID=40968&status=27620&zulknz=V&adrkey=122818&bstkey=600022"},{"salutation":"Dr. med.","name":"Veerhoff Susanne","address":{"street":"Reifenberger Str. 6","zip":"65719 Hofheim am Taunus","district":"Hofheim"},"url":"https://www.arztsuchehessen.de/arztsuche/arztsuche.php?page=karteikarte&arztID=30468&status=27820&zulknz=V&adrkey=108213&bstkey=119208"},{"salutation":"Prof. Dr. med.","name":"Wigand Rainer","address":{"street":"Schifferstr. 59","zip":"60594 Frankfurt am Main","district":"Sachsenhausen"},"url":"https://www.arztsuchehessen.de/arztsuche/arztsuche.php?page=karteikarte&arztID=34290&status=80942&zulknz=V&adrkey=165263&bstkey=196541"},{"salutation":"Dr. med.","name":"Wisseler Hans Martin","address":{"street":"Frankfurter Str. 61","zip":"63500 Seligenstadt","district":"Seligenstadt"},"url":"https://www.arztsuchehessen.de/arztsuche/arztsuche.php?page=karteikarte&arztID=832&status=78763&zulknz=V&adrkey=136198&bstkey=195772"},{"salutation":"Dr. med.","name":"Wörth Wolf-Dieter","address":{"street":"Langenbeckplatz 2","zip":"65189 Wiesbaden","district":"Wiesbaden"},"url":"https://www.arztsuchehessen.de/arztsuche/arztsuche.php?page=karteikarte&arztID=18791&status=4299&zulknz=V&adrkey=78555&bstkey=619618"},{"salutation":"Dr. med.","name":"Thoma Wolfgang","address":{"street":"Holzhausenstr. 81","zip":"60322 Frankfurt am Main","district":"Nordend-West"},"url":"https://www.arztsuchehessen.de/arztsuche/arztsuche.php?page=karteikarte&arztID=20409&status=9745&zulknz=V&adrkey=119961&bstkey=144081"},{"salutation":"Dr. med.","name":"von Stechow Dietrich","address":{"street":"Röntgenstr. 6-8","zip":"63225 Langen (Hessen)","district":"Langen"},"url":"https://www.arztsuchehessen.de/arztsuche/arztsuche.php?page=karteikarte&arztID=41753&status=27216&zulknz=V&adrkey=115057&bstkey=144068"},{"salutation":"Dr. med.","name":"Leineweber Günther","address":{"street":"Wilhelmstr. 17","zip":"65185 Wiesbaden","district":"Wiesbaden"},"url":"https://www.arztsuchehessen.de/arztsuche/arztsuche.php?page=karteikarte&arztID=18543&status=84241&zulknz=V&adrkey=127107&bstkey=644033"},{"salutation":"Dr. med.","name":"Lantzsch Heiko Martin","address":{"street":"Stresemannallee 1-3","zip":"60596 Frankfurt am Main","district":"Sachsenhausen"},"url":"https://www.arztsuchehessen.de/arztsuche/arztsuche.php?page=karteikarte&arztID=39982&status=56409&zulknz=A&adrkey=109633&bstkey=133057"},{"salutation":"Dr. med.","name":"Marx Andreas","address":{"street":"Auf der Kuhr 9","zip":"60435 Frankfurt am Main","district":"Berkersheim"},"url":"https://www.arztsuchehessen.de/arztsuche/arztsuche.php?page=karteikarte&arztID=20772&status=8787&zulknz=V&adrkey=36299&bstkey=144259"},{"salutation":"Dr. med.","name":"Maus Sebastian","address":{"street":"Stresemannallee 1-3","zip":"60596 Frankfurt am Main","district":"Sachsenhausen"},"url":"https://www.arztsuchehessen.de/arztsuche/arztsuche.php?page=karteikarte&arztID=63446&status=80580&zulknz=A&adrkey=109633&bstkey=133057"},{"salutation":"Dr. med.","name":"Meier Lothar","address":{"street":"Reifenberger Str. 6","zip":"65719 Hofheim am Taunus","district":"Hofheim"},"url":"https://www.arztsuchehessen.de/arztsuche/arztsuche.php?page=karteikarte&arztID=7621&status=5263&zulknz=V&adrkey=108213&bstkey=119208"},{"salutation":"Dr. med.","name":"Mende Markus","address":{"street":"Am Hopfengarten 16","zip":"36251 Bad Hersfeld","district":"Bad Hersfeld"},"url":"https://www.arztsuchehessen.de/arztsuche/arztsuche.php?page=karteikarte&arztID=33320&status=75338&zulknz=A&adrkey=138686&bstkey=313408"},{"salutation":"Dr. med.","name":"Mick Christoph","address":{"street":"Telemannstr. 18","zip":"60323 Frankfurt am Main","district":"Westend-Süd"},"url":"https://www.arztsuchehessen.de/arztsuche/arztsuche.php?page=karteikarte&arztID=36858&status=25589&zulknz=V&adrkey=90055&bstkey=144079"},{"salutation":"Mudher Ebtisam Faiq","address":{"street":"Frankfurter Str. 33a","zip":"63628 Bad Soden-Salmünster","district":"Salmünster"},"url":"https://www.arztsuchehessen.de/arztsuche/arztsuche.php?page=karteikarte&arztID=51843&status=71866&zulknz=A&adrkey=154485&bstkey=137149"},{"salutation":"Mudher Ebtisam Faiq","name":"06655 / 9117622","address":{"street":"Lindenplatz 2","zip":"36119 Neuhof","district":"Neuhof"},"url":"https://www.arztsuchehessen.de/arztsuche/arztsuche.php?page=karteikarte&arztID=51843&status=59828&zulknz=V&adrkey=128396&bstkey=313309"},{"salutation":"Dr. med.","name":"Messis Alexander","address":{"street":"Hessenring 92 A","zip":"61348 Bad Homburg","district":"Bad Homburg"},"url":"https://www.arztsuchehessen.de/arztsuche/arztsuche.php?page=karteikarte&arztID=36346&status=1252&zulknz=V&adrkey=187410&bstkey=194608"},{"salutation":"Dr. med.","name":"Noehte Matthias","address":{"street":"Klinikstr. 33","zip":"35392 Gießen","district":"Gießen"},"url":"https://www.arztsuchehessen.de/arztsuche/arztsuche.php?page=karteikarte&arztID=35360&status=42221&zulknz=E&adrkey=74013&bstkey=221361"},{"salutation":"Niewersch Elisabeth","address":{"street":"Erlenring 9","zip":"35037 Marburg","district":"Marburg"},"url":"https://www.arztsuchehessen.de/arztsuche/arztsuche.php?page=karteikarte&arztID=27305&status=2332&zulknz=V&adrkey=184467&bstkey=519413"},{"salutation":"Dr. med.","name":"Müller-Brodmann Wiegand","address":{"street":"Erlenring 9","zip":"35037 Marburg","district":"Marburg"},"url":"https://www.arztsuchehessen.de/arztsuche/arztsuche.php?page=karteikarte&arztID=16496&status=68379&zulknz=V&adrkey=184467&bstkey=519413"},{"salutation":"Dr. med.","name":"Pfeifer Thomas","address":{"street":"Grüneburgweg 16-18","zip":"60322 Frankfurt am Main","district":"Westend-Nord"},"url":"https://www.arztsuchehessen.de/arztsuche/arztsuche.php?page=karteikarte&arztID=5922&status=79273&zulknz=A&adrkey=166287&bstkey=196542"},{"salutation":"Dr. med.","name":"Piechalska Marta","address":{"street":"Stresemannallee 1-3","zip":"60596 Frankfurt am Main","district":"Sachsenhausen"},"url":"https://www.arztsuchehessen.de/arztsuche/arztsuche.php?page=karteikarte&arztID=46698&status=83108&zulknz=A&adrkey=109633&bstkey=133057"},{"salutation":"Dr. med.","name":"Piegsa Manfred","address":{"street":"Friedrichstr. 21","zip":"35392 Gießen","district":"Gießen"},"url":"https://www.arztsuchehessen.de/arztsuche/arztsuche.php?page=karteikarte&arztID=27913&status=3953&zulknz=V&adrkey=167240&bstkey=219397"},{"salutation":"Dr. med.","name":"Preis Markus","address":{"street":"Leibnizstr. 21","zip":"65191 Wiesbaden","district":"Sonnenberg"},"url":"https://www.arztsuchehessen.de/arztsuche/arztsuche.php?page=karteikarte&arztID=33307&status=84781&zulknz=A&adrkey=187565&bstkey=666361"},{"salutation":"Dr. med.","name":"Nottarp Dirk","address":{"street":"Sophie-Scholl-Platz 4a","zip":"63452 Hanau","district":"Hanau"},"url":"https://www.arztsuchehessen.de/arztsuche/arztsuche.php?page=karteikarte&arztID=30694&status=4143&zulknz=V&adrkey=162524&bstkey=119052"},{"salutation":"Dr. med.","name":"Prestel Monika","address":{"street":"Nibelungenstr. 30","zip":"64625 Bensheim","district":"Bensheim"},"url":"https://www.arztsuchehessen.de/arztsuche/arztsuche.php?page=karteikarte&arztID=1828&status=83970&zulknz=A&adrkey=148852&bstkey=18093"},{"salutation":"Dr. med.","name":"Pfeil Ute","address":{"street":"Erlenring 9","zip":"35037 Marburg","district":"Marburg"},"url":"https://www.arztsuchehessen.de/arztsuche/arztsuche.php?page=karteikarte&arztID=34414&status=26063&zulknz=V&adrkey=184716&bstkey=255760"},{"salutation":"Dr. med.","name":"Prestel Monika","address":{"street":"Berliner Ring 153","zip":"64625 Bensheim","district":"Auerbach"},"url":"https://www.arztsuchehessen.de/arztsuche/arztsuche.php?page=karteikarte&arztID=1828&status=83970&zulknz=A&adrkey=154344&bstkey=33021"},{"salutation":"Dr. med.","name":"Prestel Monika","address":{"street":"Bobstädter Str. 1","zip":"68642 Bürstadt","district":"Bürstadt"},"url":"https://www.arztsuchehessen.de/arztsuche/arztsuche.php?page=karteikarte&arztID=1828&status=83970&zulknz=A&adrkey=133473&bstkey=41"},{"salutation":"Professor Dr. med.","name":"Richter Marcus","address":{"street":"Beethovenstr. 20","zip":"65189 Wiesbaden","district":"Wiesbaden"},"url":"https://www.arztsuchehessen.de/arztsuche/arztsuche.php?page=karteikarte&arztID=35140&status=42209&zulknz=E&adrkey=85645&bstkey=645111"},{"salutation":"Prof. Dr. med.","name":"Rehart Stefan","address":{"street":"Wilhelm-Epstein-Str. 4","zip":"60431 Frankfurt am Main","district":"Westend-Nord"},"url":"https://www.arztsuchehessen.de/arztsuche/arztsuche.php?page=karteikarte&arztID=26390&status=41809&zulknz=E&adrkey=103111&bstkey=135564"},{"salutation":"Dr. med.","name":"Rosendahl Thomas","address":{"street":"Königsteiner Str. 68","zip":"65812 Bad Soden am Taunus","district":"Bad Soden"},"url":"https://www.arztsuchehessen.de/arztsuche/arztsuche.php?page=karteikarte&arztID=30069&status=5230&zulknz=V&adrkey=58772&bstkey=144398"},]